GLOBALSTAR M002         
1 25164U 98008C   25213.86173383 -.00000060  00000+0  32849-3 0  9990
2 25164  52.0009 125.6830 0000862 246.7196 113.3533 11.61511321189371
GLOBALSTAR M003         
1 25165U 98008D   25213.90625000 -.00000176  00000+0 -92336-3 0  9990
2 25165  51.9986  41.9014 0008624  28.9716 112.7047 12.12068798238763
GLOBALSTAR M014         
1 25306U 98023A   25213.65794122 -.00000075  00000+0  47168-4 0  9999
2 25306  51.9848  48.4616 0001825  76.5978 317.8482 11.65481458196473
GLOBALSTAR M015         
1 25308U 98023C   25213.48708255 -.00000053  00000+0  47611-3 0  9992
2 25308  51.9785 203.6066 0012349 156.5693 349.7348 11.48860475199283
GLOBALSTAR M008         
1 25309U 98023D   25213.13278314 -.00000082  00000+0  10748-3 0  9996
2 25309  51.9973  67.7456 0001884 280.1180 229.0565 12.36071262243403
